SHENZHOU-22             
1 66645U 25272A   26072.55482282  .00030215  00000+0  35350-3 0  9997
2 66645  41.4662 184.6407 0006739 297.0069  63.0081 15.60878289267524
SOYUZ-MS 28             
1 66664U 25275A   26072.38526547  .00010392  00000+0  19895-3 0  9995
2 66664  51.6324  54.0842 0007909 188.2233 171.8627 15.48625615554522
DUPLEX                  
1 66906U 98067XS  26072.43875425  .00030156  00000+0  42283-3 0  9998
2 66906  51.6291  50.6945 0002664 127.4743 232.6492 15.56488826 15713
ISS OBJECT XT           
1 66907U 98067XT  26072.33859250  .00173594  00000+0  13595-2 0  9993
2 66907  51.6247  47.0068 0004699 104.7322 255.4197 15.70505609 15756
ISS OBJECT XU           
1 66908U 98067XU  26072.46373896  .00167250  00000+0  13010-2 0  9999
2 66908  51.6245  46.3387 0004897 107.7206 252.4326 15.70686547 15779
SILVERSAT               
1 66909U 98067XV  26072.33066969  .00228210  00000+0  15396-2 0  9999
2 66909  51.6245  46.1985 0005406 105.6574 254.5022 15.73849745 15763
ISS OBJECT XW           
1 66910U 98067XW  26072.20779928  .00156438  00000+0  12699-2 0  9998
2 66910  51.6244  47.6269 0005316 107.7849 252.3729 15.69697037 15730
ISS OBJECT XX           
1 66911U 98067XX  26072.19322328  .00295789  00000+0  16950-2 0  9992
2 66911  51.6209  46.0092 0006894 108.6914 251.4835 15.77377567 15745
ISS OBJECT XY           
1 66912U 98067XY  26072.28746810  .00099603  00000+0  10103-2 0  9990
2 66912  51.6270  48.9278 0003415 112.5167 247.6190 15.64420991 15715
KNACKSAT-2              
1 67683U 98067XZ  26072.20473437  .00041086  00000+0  67024-3 0  9997
2 67683  51.6314  54.3798 0009479 198.5087 161.5560 15.52132550  5339
GXIBA-1                 
1 67684U 98067YA  26072.17149535  .00082155  00000+0  11972-2 0  9995
2 67684  51.6303  54.1588 0011339 187.6359 172.4461 15.54922629  5339
CORAL                   
1 67685U 98067YB  26072.32817294  .00046607  00000+0  74702-3 0  9990
2 67685  51.6311  53.7042 0011384 195.2471 164.8178 15.52544385  5358
ISS OBJECT YC           
1 67686U 98067YC  26072.32130389  .00054336  00000+0  85087-3 0  9990
2 67686  51.6310  53.6604 0008229 163.4448 196.6813 15.53157245  5351
LEOPARD                 
1 67687U 98067YD  26072.52385704  .00046429  00000+0  75020-3 0  9996
2 67687  51.6316  52.7625 0008054 168.0251 192.0932 15.52357443  5308
ISS OBJECT YE           
1 67688U 98067YE  26072.32442633  .00050148  00000+0  79443-3 0  9996
2 67688  51.6312  53.6814 0008083 164.1800 195.9444 15.52872730  5271
CREW DRAGON 12          
1 67796U 26031A   26072.38526547  .00010392  00000+0  19895-3 0  9993
2 67796  51.6324  54.0842 0007909 188.2233 171.8627 15.48625615556802
